NORAD_CAT_ID,OBJECT_NAME,OBJECT_TYPE,EPOCH,MEAN_MOTION,ECCENTRICITY,INCLINATION,RA_OF_ASC_NODE,ARG_OF_PERICENTER,MEAN_ANOMALY,BSTAR,MEAN_MOTION_DOT,MEAN_MOTION_DDOT,TLE_LINE0,TLE_LINE1,TLE_LINE2,SEMIMAJOR_AXIS,PERIOD,APOGEE,PERIGEE,DECAYED
52839.0,STARLINK-4048,PAYLOAD,2023-12-19 13:30:55,15.08848493,0.0001969,53.2182,75.4063,60.2856,299.8332,0.00018156,2.603e-05,0.0,0 STARLINK-4048,1 52839U 22062K   23353.56314431  .00002603  00000-0  18156-3 0  9997,2 52839  53.2182  75.4063 0001969  60.2856 299.8332 15.08848493 83330,6917.854,95.437,541.082,538.357,0.0
52839.0,STARLINK-4048,PAYLOAD,2023-12-20 11:46:20,15.08832943,0.0001587,53.217,71.2463,74.638,285.4787,-7.1659e-05,-1.428e-05,0.0,0 STARLINK-4048,1 52839U 22062K   23354.49051130 -.00001428  00000-0 -71659-4 0  9998,2 52839  53.2170  71.2463 0001587  74.6380 285.4787 15.08832943 83969,6917.902,95.438,540.865,538.669,0.0
52839.0,STARLINK-4048,PAYLOAD,2023-12-21 11:37:06,15.08866726,0.0001718,53.218,66.7789,114.2828,245.8344,0.00088387,0.00013817,0.0,0 STARLINK-4048,1 52839U 22062K   23355.48410418  .00013817  00000-0  88387-3 0  9994,2 52839  53.2180  66.7789 0001718 114.2828 245.8344 15.08866726 84117,6917.799,95.436,540.852,538.475,0.0
52839.0,STARLINK-4048,PAYLOAD,2023-12-22 11:27:54,15.08844265,0.0001388,53.2174,62.3242,97.7819,262.3331,8.7767e-05,1.109e-05,0.0,0 STARLINK-4048,1 52839U 22062K   23356.47770923  .00001109  00000-0  87767-4 0  9997,2 52839  53.2174  62.3242 0001388  97.7819 262.3331 15.08844265 84264,6917.867,95.437,540.693,538.772,0.0
52839.0,STARLINK-4048,PAYLOAD,2023-12-23 09:43:18,15.08844172,0.0001525,53.218,58.162,96.5741,263.5425,-2.0785e-05,-6.19e-06,0.0,0 STARLINK-4048,1 52839U 22062K   23357.40507493 -.00000619  00000-0 -20785-4 0  9995,2 52839  53.2180  58.1620 0001525  96.5741 263.5425 15.08844172 84408,6917.868,95.437,540.788,538.678,0.0
52839.0,STARLINK-4048,PAYLOAD,2023-12-23 14:29:27,15.08848781,0.0002144,53.2181,57.2671,124.873,235.2464,9.5407e-05,1.231e-05,0.0,0 STARLINK-4048,1 52839U 22062K   23357.60378679  .00001231  00000-0  95407-4 0  9991,2 52839  53.2181  57.2671 0002144 124.8730 235.2464 15.08848781 83943,6917.854,95.437,541.202,538.235,0.0
52839.0,STARLINK-4048,PAYLOAD,2023-12-24 03:12:33,15.08828429,0.0002037,53.2173,54.8805,132.6952,227.4212,7.4005e-05,8.89e-06,0.0,0 STARLINK-4048,1 52839U 22062K   23358.13371950  .00000889  00000-0  74005-4 0  9994,2 52839  53.2173  54.8805 0002037 132.6952 227.4212 15.08828429 84515,6917.916,95.438,541.19,538.372,0.0
52839.0,STARLINK-4048,PAYLOAD,2023-12-24 09:34:05,15.08830808,0.0001654,53.2189,53.7023,105.4131,254.7043,0.00011959,1.615e-05,0.0,0 STARLINK-4048,1 52839U 22062K   23358.39867984  .00001615  00000-0  11959-3 0  9995,2 52839  53.2189  53.7023 0001654 105.4131 254.7043 15.08830808 84062,6917.908,95.438,540.918,538.629,0.0
52839.0,STARLINK-4048,PAYLOAD,2023-12-25 11:00:15,15.0884794,0.0001426,53.2185,48.9438,84.687,275.4285,0.00016461,2.333e-05,0.0,0 STARLINK-4048,1 52839U 22062K   23359.45851324  .00002333  00000-0  16461-3 0  9995,2 52839  53.2185  48.9438 0001426  84.6870 275.4285 15.08847940 84714,6917.856,95.437,540.708,538.735,0.0
52839.0,STARLINK-4048,PAYLOAD,2023-12-25 12:35:38,15.0885075,0.0001406,53.2181,48.6474,101.8638,258.2512,0.0002793,4.161e-05,0.0,0 STARLINK-4048,1 52839U 22062K   23359.52475105  .00004161  00000-0  27930-3 0  9996,2 52839  53.2181  48.6474 0001406 101.8638 258.2512 15.08850750 84231,6917.848,95.437,540.685,538.74,0.0
52839.0,STARLINK-4048,PAYLOAD,2023-12-25 23:43:21,15.08836416,0.0001312,53.218,46.5658,95.3955,264.7187,0.00010761,1.425e-05,0.0,0 STARLINK-4048,1 52839U 22062K   23359.98843824  .00001425  00000-0  10761-3 0  9997,2 52839  53.2180  46.5658 0001312  95.3955 264.7187 15.08836416 84790,6917.891,95.438,540.664,538.849,0.0
52839.0,STARLINK-4048,PAYLOAD,2023-12-26 12:26:26,15.0883915,0.0002098,53.2184,44.185,126.5742,233.5444,3.3667e-05,2.48e-06,0.0,0 STARLINK-4048,1 52839U 22062K   23360.51835664  .00000248  00000-0  33667-4 0  9994,2 52839  53.2184  44.1850 0002098 126.5742 233.5444 15.08839150 84388,6917.883,95.438,541.199,538.297,0.0
52839.0,STARLINK-4048,PAYLOAD,2023-12-27 09:06:27,15.08837965,0.0001598,53.2167,40.3137,120.0626,240.0524,-7.4166e-05,-1.468e-05,0.0,0 STARLINK-4048,1 52839U 22062K   23361.37947921 -.00001468  00000-0 -74166-4 0  9995,2 52839  53.2167  40.3137 0001598 120.0626 240.0524 15.08837965 85003,6917.887,95.438,540.857,538.646,0.0
52839.0,STARLINK-4048,PAYLOAD,2023-12-27 12:17:13,15.0883987,0.0001535,53.2165,39.7172,117.0164,243.0985,-2.9556e-05,-7.58e-06,0.0,0 STARLINK-4048,1 52839U 22062K   23361.51195849 -.00000758  00000-0 -29556-4 0  9999,2 52839  53.2165  39.7172 0001535 117.0164 243.0985 15.08839870 84534,6917.881,95.438,540.808,538.684,0.0
52839.0,STARLINK-4048,PAYLOAD,2023-12-28 12:07:59,15.08853094,0.0001457,53.2163,35.259,95.9584,264.1574,0.00024493,3.614e-05,0.0,0 STARLINK-4048,1 52839U 22062K   23362.50555436  .00003614  00000-0  24493-3 0  9997,2 52839  53.2163  35.2590 0001457  95.9584 264.1574 15.08853094 85173,6917.84,95.437,540.713,538.697,0.0
52839.0,STARLINK-4048,PAYLOAD,2023-12-29 08:48:02,15.08814404,0.0001827,53.2183,31.389,115.5854,244.5327,0.0010324,0.00016169,0.0,0 STARLINK-4048,1 52839U 22062K   23363.36669919  .00016169  00000-0  10324-2 0  9990,2 52839  53.2183  31.3890 0001827 115.5854 244.5327 15.08814404 85300,6917.959,95.439,541.088,538.56,0.0
52839.0,STARLINK-4048,PAYLOAD,2023-12-29 11:58:47,15.08843322,0.0001596,53.2177,30.8022,97.0241,263.0932,0.00012724,1.738e-05,0.0,0 STARLINK-4048,1 52839U 22062K   23363.49916063  .00001738  00000-0  12724-3 0  9992,2 52839  53.2177  30.8022 0001596  97.0241 263.0932 15.08843322 84837,6917.87,95.437,540.839,538.631,0.0
52839.0,STARLINK-4048,PAYLOAD,2023-12-30 08:38:48,15.08845023,0.0001587,53.2173,26.9353,99.7277,260.3894,3.5253e-05,2.73e-06,0.0,0 STARLINK-4048,1 52839U 22062K   23364.36027990  .00000273  00000-0  35253-4 0  9997,2 52839  53.2173  26.9353 0001587  99.7277 260.3894 15.08845023 84965,6917.865,95.437,540.828,538.632,0.0
52839.0,STARLINK-4048,PAYLOAD,2023-12-31 11:40:21,15.0883806,0.0001632,53.2174,21.8805,102.2644,257.8531,7.4124e-05,8.92e-06,0.0,0 STARLINK-4048,1 52839U 22062K   23365.48636510  .00000892  00000-0  74124-4 0  9992,2 52839  53.2174  21.8805 0001632 102.2644 257.8531 15.08838060 85627,6917.886,95.438,540.88,538.622,0.0
52839.0,STARLINK-4048,PAYLOAD,2024-01-01 08:20:22,15.08840229,0.0001559,53.2183,18.0142,94.3276,265.7895,7.7658e-05,9.48e-06,0.0,0 STARLINK-4048,1 52839U 22062K   24001.34748794  .00000948  00000-0  77658-4 0  9990,2 52839  53.2183  18.0142 0001559  94.3276 265.7895 15.08840229 85260,6917.88,95.438,540.823,538.666,0.0
52839.0,STARLINK-4048,PAYLOAD,2024-01-02 08:11:10,15.08842331,0.0001543,53.2184,13.5538,87.7943,272.3226,0.00010586,1.397e-05,0.0,0 STARLINK-4048,1 52839U 22062K   24002.34108812  .00001397  00000-0  10586-3 0  9997,2 52839  53.2184  13.5538 0001543  87.7943 272.3226 15.08842331 85909,6917.873,95.437,540.806,538.671,0.0
52839.0,STARLINK-4048,PAYLOAD,2024-01-03 09:37:20,15.08843421,0.000162,53.2185,8.7968,78.0884,282.029,7.9888e-05,9.84e-06,0.0,0 STARLINK-4048,1 52839U 22062K   24003.40092951  .00000984  00000-0  79888-4 0  9993,2 52839  53.2185   8.7968 0001620  78.0884 282.0290 15.08843421 86064,6917.87,95.437,540.856,538.614,0.0
52839.0,STARLINK-4048,PAYLOAD,2024-01-04 04:41:57,15.0884641,0.0001601,53.2171,5.231,79.0342,281.083,4.4932e-05,4.27e-06,0.0,0 STARLINK-4048,1 52839U 22062K   24004.19580830  .00000427  00000-0  44932-4 0  9992,2 52839  53.2171   5.2310 0001601  79.0342 281.0830 15.08846410 85699,6917.861,95.437,540.833,538.618,0.0
52839.0,STARLINK-4048,PAYLOAD,2024-01-05 04:32:45,15.0884077,0.0001353,53.2188,0.7698,100.3384,259.7761,1.8015e-05,-1e-08,0.0,0 STARLINK-4048,1 52839U 22062K   24005.18941088 -.00000001  00000-0  18015-4 0  9990,2 52839  53.2188   0.7698 0001353 100.3384 259.7761 15.08840770 86334,6917.878,95.438,540.679,538.807,0.0
52839.0,STARLINK-4048,PAYLOAD,2024-01-05 06:08:08,15.08841967,0.0001299,53.2182,0.4711,97.4165,262.6974,2.8905e-06,-2.42e-06,0.0,0 STARLINK-4048,1 52839U 22062K   24005.25565060 -.00000242  00000-0  28905-5 0  9997,2 52839  53.2182   0.4711 0001299  97.4165 262.6974 15.08841967 85857,6917.874,95.437,540.638,538.841,0.0
52839.0,STARLINK-4048,PAYLOAD,2024-01-06 04:23:31,15.08842981,0.0001306,53.2182,356.3101,85.9441,274.1701,5.6883e-05,6.18e-06,0.0,0 STARLINK-4048,1 52839U 22062K   24006.18300896  .00000618  00000-0  56883-4 0  9995,2 52839  53.2182 356.3101 0001306  85.9441 274.1701 15.08842981 85999,6917.871,95.437,540.64,538.833,0.0
52839.0,STARLINK-4048,PAYLOAD,2024-01-07 04:14:19,15.08840106,0.0001309,53.2182,351.8506,86.8344,273.2798,8.4605e-05,1.059e-05,0.0,0 STARLINK-4048,1 52839U 22062K   24007.17661043  .00001059  00000-0  84605-4 0  9992,2 52839  53.2182 351.8506 0001309  86.8344 273.2798 15.08840106 86638,6917.88,95.438,540.651,538.84,0.0
52839.0,STARLINK-4048,PAYLOAD,2024-01-07 05:49:42,15.08842708,0.0001344,53.2178,351.5502,94.2118,265.9027,0.00011508,1.544e-05,0.0,0 STARLINK-4048,1 52839U 22062K   24007.24284783  .00001544  00000-0  11508-3 0  9992,2 52839  53.2178 351.5502 0001344  94.2118 265.9027 15.08842708 86157,6917.872,95.437,540.667,538.807,0.0
52839.0,STARLINK-4048,PAYLOAD,2024-01-08 04:05:06,15.08822728,0.0001432,53.218,347.3888,104.3807,255.7344,0.00024662,3.637e-05,0.0,0 STARLINK-4048,1 52839U 22062K   24008.17021746  .00003637  00000-0  24662-3 0  9993,2 52839  53.2180 347.3888 0001432 104.3807 255.7344 15.08822728 86784,6917.933,95.439,540.789,538.808,0.0
52839.0,STARLINK-4048,PAYLOAD,2024-01-08 08:51:15,15.08837788,0.0001391,53.2182,346.4939,102.2617,257.8531,7.0453e-05,8.33e-06,0.0,0 STARLINK-4048,1 52839U 22062K   24008.36893317  .00000833  00000-0  70453-4 0  9990,2 52839  53.2182 346.4939 0001391 102.2617 257.8531 15.08837788 86810,6917.887,95.438,540.714,538.79,0.0
